TEVEL2-7                
1 63238U 25052AE  26068.66113296  .00019244  00000+0  69668-3 0  9999
2 63238  97.4054 324.3041 0008104 124.6830 235.5175 15.28414096 54802
HERMES-4                
1 63833U 25052BP  26068.92081747  .00021364  00000+0  81237-3 0  9996
2 63833  97.4000 323.4610 0002652 154.9526 205.1842 15.26796135 54782
